IRIDIUM 7               
1 24793U 97020B   24344.75719812  .00000973  00000+0  33081-3 0  9996
2 24793  86.3962 256.2453 0002353  76.3768 283.7691 14.35653319444714
IRIDIUM 5               
1 24795U 97020D   24345.50500098  .00008183  00000+0  71493-3 0  9996
2 24795  86.3918 170.5021 0116935  94.1502 267.3100 14.91425785457344
IRIDIUM 4               
1 24796U 97020E   24345.13891173  .00000995  00000+0  33225-3 0  9997
2 24796  86.3960 253.0851 0002339  82.7209 277.4254 14.36567623445356
IRIDIUM 914             
1 24836U 97030A   24345.04099273  .00001293  00000+0  40037-3 0  9995
2 24836  86.3934 262.3012 0003736 100.2608 259.9012 14.40523491441998
IRIDIUM 16              
1 24841U 97030F   24344.71865154  .00001245  00000+0  40248-3 0  9994
2 24841  86.4018 284.8833 0002386  28.2865 331.8462 14.38385714439764
IRIDIUM 911             
1 24842U 97030G   24344.69594348  .00001768  00000+0  47850-3 0  9992
2 24842  86.4443 283.8563 0015089  18.6045 341.5707 14.47185529447674
IRIDIUM 17              
1 24870U 97034B   24344.79759975  .00001286  00000+0  42351-3 0  9993
2 24870  86.3941 314.4214 0000729  67.0500 293.0775 14.37486915436373
IRIDIUM 920             
1 24871U 97034C   24345.39639186  .00001363  00000+0  41628-3 0  9994
2 24871  86.3956 293.8210 0011389 356.7841   3.3284 14.41195229439646
